{
  "type": "FeatureCollection",
  "features": [
    {
      "type": "Feature",
      "properties": {
        "norad_id": 30022,
        "name": "FENGYUN 1C DEB",
        "group": "fengyun-1c-debris",
        "lat": -51.41637376099254,
        "lon": -148.2751059653123,
        "alt_km": 793.0318442514554,
        "timestamp": "2025-12-17T21:39:45.960750+00:00",
        "meta_object_name": "FENGYUN 1C DEB",
        "meta_object_id": "1999-025MX",
        "meta_epoch": "2025-12-17T13:43:57.464832",
        "meta_mean_motion": 14.23134265,
        "meta_eccentricity": 0.00665829,
        "meta_inclination": 99.0719,
        "meta_ra_of_asc_node": 199.8323,
        "meta_arg_of_pericenter": 255.0851,
        "meta_mean_anomaly": 160.1426,
        "meta_ephemeris_type": 0,
        "meta_classification_type": "U",
        "meta_norad_cat_id": 30022,
        "meta_element_set_no": 999,
        "meta_rev_at_epoch": 98261,
        "meta_bstar": 6.6165205e-05,
        "meta_mean_motion_dot": 1.05e-06,
        "meta_mean_motion_ddot": 0,
        "tle_line1": "1 30022U 99025MX  25351.57219288  .00000105  00000+0  66165-4 0  9993",
        "tle_line2": "2 30022  99.0719 199.8323 0066582 255.0851 160.1426 14.23134265982619"
      },
      "geometry": {
        "type": "Point",
        "coordinates": [
          -148.2751059653123,
          -51.41637376099254
        ]
      }
    },
    {
      "type": "Feature",
      "properties": {
        "norad_id": 30023,
        "name": "FENGYUN 1C DEB",
        "group": "fengyun-1c-debris",
        "lat": 27.39699971703327,
        "lon": -179.21853026607448,
        "alt_km": 820.0182874372922,
        "timestamp": "2025-12-17T21:39:45.960759+00:00",
        "meta_object_name": "FENGYUN 1C DEB",
        "meta_object_id": "1999-025MY",
        "meta_epoch": "2025-12-17T11:28:10.316352",
        "meta_mean_motion": 14.11869892,
        "meta_eccentricity": 0.0047135,
        "meta_inclination": 99.2936,
        "meta_ra_of_asc_node": 185.21,
        "meta_arg_of_pericenter": 50.4936,
        "meta_mean_anomaly": 340.0522,
        "meta_ephemeris_type": 0,
        "meta_classification_type": "U",
        "meta_norad_cat_id": 30023,
        "meta_element_set_no": 999,
        "meta_rev_at_epoch": 97263,
        "meta_bstar": 0.00037124752,
        "meta_mean_motion_dot": 6.38e-06,
        "meta_mean_motion_ddot": 0,
        "tle_line1": "1 30023U 99025MY  25351.47789718  .00000638  00000+0  37125-3 0  9997",
        "tle_line2": "2 30023  99.2936 185.2100 0047135  50.4936 340.0522 14.11869892972634"
      },
      "geometry": {
        "type": "Point",
        "coordinates": [
          -179.21853026607448,
          27.39699971703327
        ]
      }
    },
    {
      "type": "Feature",
      "properties": {
        "norad_id": 30028,
        "name": "FENGYUN 1C DEB",
        "group": "fengyun-1c-debris",
        "lat": 33.974413574072685,
        "lon": -21.535466511566696,
        "alt_km": 829.0365323153819,
        "timestamp": "2025-12-17T21:39:45.960768+00:00",
        "meta_object_name": "FENGYUN 1C DEB",
        "meta_object_id": "1999-025ND",
        "meta_epoch": "2025-12-17T13:49:30.000288",
        "meta_mean_motion": 14.55507305,
        "meta_eccentricity": 0.01743799,
        "meta_inclination": 98.1452,
        "meta_ra_of_asc_node": 343.6841,
        "meta_arg_of_pericenter": 213.2562,
        "meta_mean_anomaly": 271.1071,
        "meta_ephemeris_type": 0,
        "meta_classification_type": "U",
        "meta_norad_cat_id": 30028,
        "meta_element_set_no": 999,
        "meta_rev_at_epoch": 99792,
        "meta_bstar": 0.0002650984,
        "meta_mean_motion_dot": 1.362e-05,
        "meta_mean_motion_ddot": 0,
        "tle_line1": "1 30028U 99025ND  25351.57604167  .00001362  00000+0  26510-3 0  9998",
        "tle_line2": "2 30028  98.1452 343.6841 0174379 213.2562 271.1071 14.55507305997925"
      },
      "geometry": {
        "type": "Point",
        "coordinates": [
          -21.535466511566696,
          33.974413574072685
        ]
      }
    },
    {
      "type": "Feature",
      "properties": {
        "norad_id": 30035,
        "name": "FENGYUN 1C DEB",
        "group": "fengyun-1c-debris",
        "lat": -40.8929617917561,
        "lon": 78.97968237002777,
        "alt_km": 857.1404839624329,
        "timestamp": "2025-12-17T21:39:45.960777+00:00",
        "meta_object_name": "FENGYUN 1C DEB",
        "meta_object_id": "1999-025NL",
        "meta_epoch": "2025-12-17T07:49:33.379392",
        "meta_mean_motion": 14.36977137,
        "meta_eccentricity": 0.01154591,
        "meta_inclination": 99.271,
        "meta_ra_of_asc_node": 266.4911,
        "meta_arg_of_pericenter": 48.6734,
        "meta_mean_anomaly": 71.8553,
        "meta_ephemeris_type": 0,
        "meta_classification_type": "U",
        "meta_norad_cat_id": 30035,
        "meta_element_set_no": 999,
        "meta_rev_at_epoch": 99189,
        "meta_bstar": 6.5945812e-05,
        "meta_mean_motion_dot": 1.58e-06,
        "meta_mean_motion_ddot": 0,
        "tle_line1": "1 30035U 99025NL  25351.32608078  .00000158  00000+0  65946-4 0  9993",
        "tle_line2": "2 30035  99.2710 266.4911 0115459  48.6734  71.8553 14.36977137991890"
      },
      "geometry": {
        "type": "Point",
        "coordinates": [
          78.97968237002777,
          -40.8929617917561
        ]
      }
    },
    {
      "type": "Feature",
      "properties": {
        "norad_id": 30036,
        "name": "FENGYUN 1C DEB",
        "group": "fengyun-1c-debris",
        "lat": 57.74583841963436,
        "lon": -147.83799374847817,
        "alt_km": 685.3777343470083,
        "timestamp": "2025-12-17T21:39:45.960786+00:00",
        "meta_object_name": "FENGYUN 1C DEB",
        "meta_object_id": "1999-025NM",
        "meta_epoch": "2025-12-17T13:29:51.734112",
        "meta_mean_motion": 14.46198139,
        "meta_eccentricity": 0.01902123,
        "meta_inclination": 98.2525,
        "meta_ra_of_asc_node": 18.5345,
        "meta_arg_of_pericenter": 192.9174,
        "meta_mean_anomaly": 320.1539,
        "meta_ephemeris_type": 0,
        "meta_classification_type": "U",
        "meta_norad_cat_id": 30036,
        "meta_element_set_no": 999,
        "meta_rev_at_epoch": 99246,
        "meta_bstar": 0.00029255481,
        "meta_mean_motion_dot": 1.258e-05,
        "meta_mean_motion_ddot": 0,
        "tle_line1": "1 30036U 99025NM  25351.56240433  .00001258  00000+0  29255-3 0  9991",
        "tle_line2": "2 30036  98.2525  18.5345 0190212 192.9174 320.1539 14.46198139992468"
      },
      "geometry": {
        "type": "Point",
        "coordinates": [
          -147.83799374847817,
          57.74583841963436
        ]
      }
    },
    {
      "type": "Feature",
      "properties": {
        "norad_id": 30037,
        "name": "FENGYUN 1C DEB",
        "group": "fengyun-1c-debris",
        "lat": -66.84060575410767,
        "lon": -12.367493320420547,
        "alt_km": 821.9401677230508,
        "timestamp": "2025-12-17T21:39:45.960795+00:00",
        "meta_object_name": "FENGYUN 1C DEB",
        "meta_object_id": "1999-025NN",
        "meta_epoch": "2025-12-17T12:29:05.417376",
        "meta_mean_motion": 14.34125131,
        "meta_eccentricity": 0.01742408,
        "meta_inclination": 98.3838,
        "meta_ra_of_asc_node": 327.0946,
        "meta_arg_of_pericenter": 40.9344,
        "meta_mean_anomaly": 79.4777,
        "meta_ephemeris_type": 0,
        "meta_classification_type": "U",
        "meta_norad_cat_id": 30037,
        "meta_element_set_no": 999,
        "meta_rev_at_epoch": 98856,
        "meta_bstar": 0.00019362203,
        "meta_mean_motion_dot": 5.96e-06,
        "meta_mean_motion_ddot": 0,
        "tle_line1": "1 30037U 99025NN  25351.52020159  .00000596  00000+0  19362-3 0  9991",
        "tle_line2": "2 30037  98.3838 327.0946 0174240  40.9344  79.4777 14.34125131988569"
      },
      "geometry": {
        "type": "Point",
        "coordinates": [
          -12.367493320420547,
          -66.84060575410767
        ]
      }
    },
    {
      "type": "Feature",
      "properties": {
        "norad_id": 30038,
        "name": "FENGYUN 1C DEB",
        "group": "fengyun-1c-debris",
        "lat": 58.24548040523603,
        "lon": -34.3449263381335,
        "alt_km": 591.5153610913048,
        "timestamp": "2025-12-17T21:39:45.960804+00:00",
        "meta_object_name": "FENGYUN 1C DEB",
        "meta_object_id": "1999-025NP",
        "meta_epoch": "2025-12-16T22:17:55.320864",
        "meta_mean_motion": 14.39303712,
        "meta_eccentricity": 0.02580048,
        "meta_inclination": 98.3685,
        "meta_ra_of_asc_node": 338.4623,
        "meta_arg_of_pericenter": 90.2684,
        "meta_mean_anomaly": 329.1359,
        "meta_ephemeris_type": 0,
        "meta_classification_type": "U",
        "meta_norad_cat_id": 30038,
        "meta_element_set_no": 999,
        "meta_rev_at_epoch": 98951,
        "meta_bstar": 0.00021649572,
        "meta_mean_motion_dot": 9.43e-06,
        "meta_mean_motion_ddot": 0,
        "tle_line1": "1 30038U 99025NP  25350.92911251  .00000943  00000+0  21650-3 0  9996",
        "tle_line2": "2 30038  98.3685 338.4623 0258004  90.2684 329.1359 14.39303712989519"
      },
      "geometry": {
        "type": "Point",
        "coordinates": [
          -34.3449263381335,
          58.24548040523603
        ]
      }
    }
  ]
}